STARLINK-2149           
1 47738C 21017S   22288.10951389  .00016113  00000-0  10798-2 0  2888
2 47738  53.0552  15.5513 0001801  37.4467 191.7264 15.06374810    18
STARLINK-2150           
1 47739C 21017T   22288.11576389 -.00008956  00000-0 -60025-3 0  2880
2 47739  53.0548  40.2719 0001420  58.6140  87.0834 15.06395758    11
STARLINK-2152           
1 47740C 21017U   22288.11159722 -.00003180  00000-0 -21299-3 0  2884
2 47740  53.0555  25.2898 0001785  48.3389 177.3170 15.06415215    14
STARLINK-2154           
1 47741C 21017V   22288.09493056 -.00003703  00000-0 -24802-3 0  2887
2 47741  53.0546  25.3684 0001427  54.3206   0.8872 15.06411308    15
STARLINK-2156           
1 47742C 21017W   22288.10604167 -.00004191  00000-0 -28084-3 0  2885
2 47742  53.0548  15.3092 0002104  36.0928  14.4053 15.06398631    16
STARLINK-2157           
1 47743C 21017X   22288.11506944  .00016065  00000-0  10759-2 0  2881
2 47743  53.0548  15.2730 0001909  41.1212 278.3730 15.06396868    13
STARLINK-2158           
1 47744C 21017Y   22288.11229167 -.00025197  00000-0 -16890-2 0  2881
2 47744  53.0543  15.2259 0001716  43.9352  45.6498 15.06407180    12
STARLINK-2159           
1 47745C 21017Z   22288.10395833  .00011836  00000-0  79331-3 0  2888
2 47745  53.0558  25.3077 0001714  48.3177 175.9174 15.06372994    13
STARLINK-2160           
1 47746C 21017AA  22288.11645833  .00011308  00000-0  75749-3 0  2881
2 47746  53.0550  25.2683 0001655  46.0979 285.9344 15.06395007    18
STARLINK-2161           
1 47747C 21017AB  22288.11020833 -.00007602  00000-0 -50943-3 0  2882
2 47747  53.0549  15.2773 0001831  37.6478 275.4885 15.06400653    10
STARLINK-2162           
1 47748C 21017AC  22288.10187500 -.00005174  00000-0 -34656-3 0  2882
2 47748  53.0548  15.3195 0002021  37.0511 270.8501 15.06413926    14
STARLINK-2163           
1 47749C 21017AD  22288.10187500  .00014230  00000-0  95364-3 0  2887
2 47749  53.0556  15.3274 0001756  43.7852 184.1272 15.06375458    17
STARLINK-2164           
1 47750C 21017AE  22288.11298611 -.00014963  00000-0 -10025-2 0  2881
2 47750  53.0539  15.2670 0001935  43.5997   4.5901 15.06413048    18
STARLINK-2168           
1 47751C 21017AF  22288.11368056 -.00009438  00000-0 -63212-3 0  2881
2 47751  53.0559   5.2757 0002187  34.0651 212.8744 15.06419164    12
STARLINK-2169           
1 47752C 21017AG  22288.11090278  .00014058  00000-0  94171-3 0  2880
2 47752  53.0551  20.2848 0001446  62.6562 346.7387 15.06391421    13
STARLINK-2170           
1 47753C 21017AH  22288.11576389  .00015532  00000-0  10405-2 0  2888
2 47753  53.0556  25.2717 0001838  47.7925 160.4862 15.06387416    19
STARLINK-2171           
1 47754C 21017AJ  22288.10395833  .00012856  00000-0  86116-3 0  2880
2 47754  53.0538  25.3190 0001788  48.0400 256.1956 15.06395265    10
STARLINK-2174           
1 47756C 21017AL  22288.10048611 -.00007768  00000-0 -52073-3 0  2884
2 47756  53.0556  25.3409 0001883  43.4830 261.9085 15.06387241    19
STARLINK-2175           
1 47757C 21017AM  22288.10604167  .00009006  00000-0  60337-3 0  2886
2 47757  53.0547  25.2992 0001744  45.1833  10.2901 15.06392235    15
STARLINK-2178           
1 47760C 21017AQ  22288.10048611 -.00005822  00000-0 -39012-3 0  2886
2 47760  53.0551  35.3366 0001742  58.2231 152.1404 15.06402854    19
STARLINK-2179           
1 47761C 21017AR  22288.10187500 -.00005886  00000-0 -39430-3 0  2882
2 47761  53.0556  25.3272 0001385  74.5213 338.3828 15.06413212    12
STARLINK-2180           
1 47762C 21017AS  22288.11090278 -.00002415  00000-0 -16185-3 0  2886
2 47762  53.0544  40.3074 0001935  46.4988 272.9068 15.06392177    10
STARLINK-2181           
1 47763C 21017AT  22288.10951389 -.00016605  00000-0 -11127-2 0  2881
2 47763  53.0537  30.2934 0001742  49.8267 177.0330 15.06408963    17
STARLINK-2182           
1 47764C 21017AU  22288.11368056 -.00015635  00000-0 -10476-2 0  2884
2 47764  53.0541  40.2758 0001497  57.7771 356.6641 15.06413406    11
STARLINK-2184           
1 47766C 21017AW  22288.11020833 -.00004421  00000-0 -29609-3 0  2884
2 47766  53.0558  40.2803 0001772  40.8072 259.9249 15.06415254    17
STARLINK-2185           
1 47767C 21017AX  22288.09215278 -.00008567  00000-0 -57380-3 0  2883
2 47767  53.0557  25.3731 0001812  52.9589   7.1826 15.06421163    13
STARLINK-2189           
1 47768C 21017AY  22288.11437500 -.00002677  00000-0 -17933-3 0  2887
2 47768  53.0561  40.6707 0001645  53.4052 264.5490 15.06401715    14
STARLINK-2192           
1 47769C 21017AZ  22288.10812500  .00004148  00000-0  27785-3 0  2883
2 47769  53.0537   5.3097 0001876  42.2720 194.5231 15.06407710    18
STARLINK-2193           
1 47770C 21017BA  22288.11368056  .00002057  00000-0  13780-3 0  2885
2 47770  53.0549  20.2575 0001897  47.6364 176.8298 15.06394832    12
STARLINK-2194           
1 47771C 21017BB  22288.09215278  .00013520  00000-0  90540-3 0  2886
2 47771  53.0561  20.3785 0001989  43.9844   3.6559 15.06403055    10
STARLINK-2195           
1 47772C 21017BC  22288.11437500 -.00001660  00000-0 -11123-3 0  2888
2 47772  53.0552  35.2763 0001492  66.7809 158.9207 15.06400282    18
STARLINK-2196           
1 47773C 21017BD  22288.11090278 -.00009025  00000-0 -60451-3 0  2887
2 47773  53.0555  35.2874 0001578  50.6905 176.2019 15.06417256    12
STARLINK-2197           
1 47774C 21017BE  22288.10673611 -.00005137  00000-0 -34407-3 0  2887
2 47774  53.0547  35.3096 0001660  50.5227 173.7647 15.06413516    13
STARLINK-2198           
1 47775C 21017BF  22288.10604167  .00014518  00000-0  97245-3 0  2888
2 47775  53.0554  35.3047 0001681  52.9603 107.5577 15.06394870    13
STARLINK-2209           
1 47776C 21017BG  22288.11229167  .00011885  00000-0  79604-3 0  2886
2 47776  53.0564  25.2860 0001610  53.4112 356.0064 15.06398671    14
STARLINK-2210           
1 47777C 21017BH  22288.11506944  .00011357  00000-0  76077-3 0  2883
2 47777  53.0547  25.2724 0002006  39.7138   4.7910 15.06394391    12
STARLINK-2211           
1 47778C 21017BJ  22288.11506944  .00011497  00000-0  77014-3 0  2881
2 47778  53.0556  25.2634 0001657  56.5570 167.9292 15.06394067    16
STARLINK-2212           
1 47779C 21017BK  22288.11437500 -.00008587  00000-0 -48849-3 0  2885
2 47779  53.0541   9.2125 0002098  28.1599 139.6720 15.12366385    15
STARLINK-2213           
1 47780C 21017BL  22288.11437500 -.00000031  00000-0 -20671-5 0  2888
2 47780  53.0568  25.2601 0001818  57.1175  23.6158 15.06395507    12
STARLINK-2223           
1 47781C 21017BM  22288.10812500  .00013028  00000-0  87296-3 0  2887
2 47781  53.0558  25.2876 0001511  51.6960 175.1287 15.06382825    12
STARLINK-2257           
1 47787C 21018A   22288.10673611  .00011699  00000-0  78368-3 0  2884
2 47787  53.0550  65.2984 0001259  91.1727  28.1056 15.06395087    18
STARLINK-2314           
1 47788C 21018B   22288.10604167 -.00009890  00000-0 -66251-3 0  2885
2 47788  53.0550  40.3128 0001749  50.6299   2.3878 15.06417165    19
STARLINK-2315           
1 47789C 21018C   22288.10395833 -.00004768  00000-0 -31950-3 0  2880
2 47789  53.0552  45.3208 0001566  68.0609  66.1572 15.06399627    12
STARLINK-2319           
1 47790C 21018D   22288.11020833 -.00003446  00000-0 -23086-3 0  2881
2 47790  53.0554  35.2900 0001608  46.1915 256.9212 15.06410691    12
STARLINK-2322           
1 47791C 21018E   22288.09562500  .00013794  00000-0  92401-3 0  2883
2 47791  53.0546  65.3391 0001489  73.5347  45.4633 15.06394131    10
STARLINK-2334           
1 47792C 21018F   22288.11506944 -.00005865  00000-0 -39289-3 0  2884
2 47792  53.0546  45.2769 0001647  47.7970 106.6978 15.06412233    14
STARLINK-2338           
1 47793C 21018G   22288.11298611 -.00010888  00000-0 -72942-3 0  2888
2 47793  53.0554  45.2858 0001612  61.2201   2.0113 15.06414475    13
STARLINK-2341           
1 47794C 21018H   22288.11506944  .00001069  00000-0  71628-4 0  2880
2 47794  53.0554  45.2771 0001545  57.4908 357.0002 15.06409820    12
STARLINK-2347           
1 47795C 21018J   22288.10395833 -.00008201  00000-0 -54935-3 0  2881
2 47795  53.0543  45.3276 0001381  66.0517 348.1742 15.06416136    12
STARLINK-2373           
1 47796C 21018K   22288.09701389 -.00013249  00000-0 -88806-3 0  2889
2 47796  53.0545  45.3493 0001599  66.9982 229.5552 15.06397592    17
STARLINK-2377           
1 47797C 21018L   22288.10048611 -.00003249  00000-0 -21766-3 0  2885
2 47797  53.0546  70.3442 0001409  82.4435  35.4366 15.06407401    15
STARLINK-2379           
1 47798C 21018M   22288.11229167  .00009344  00000-0  62618-3 0  2885
2 47798  53.0550  45.2881 0001719  54.5132 264.9957 15.06383172    10
STARLINK-2380           
1 47799C 21018N   22288.10812500 -.00009626  00000-0 -64478-3 0  2885
2 47799  53.0543  45.2879 0001563  63.1621 253.6449 15.06419729    15
STARLINK-2381           
1 47800C 21018P   22288.11020833  .00010580  00000-0  70879-3 0  2880
2 47800  53.0558  45.2955 0001865  47.7132 160.4259 15.06392927    13
STARLINK-2382           
1 47801C 21018Q   22288.09354167 -.00004195  00000-0 -28095-3 0  2888
2 47801  53.0564  50.4449 0001446  58.3518 231.7634 15.06414399    15
STARLINK-2383           
1 47802C 21018R   22288.10743056 -.00006652  00000-0 -44563-3 0  2888
2 47802  53.0556  70.2945 0001405  85.6912  29.8535 15.06412025    14
STARLINK-2384           
1 47803C 21018S   22288.11159722 -.00009606  00000-0 -64369-3 0  2889
2 47803  53.0554  45.2910 0001440  60.4559  95.1949 15.06404636    18
STARLINK-2385           
1 47804C 21018T   22288.08520833 -.00007085  00000-0 -47456-3 0  2888
2 47804  53.0557  45.4101 0001474  56.8853 235.5764 15.06416755    19
STARLINK-2386           
1 47805C 21018U   22288.10187500 -.00018967  00000-0 -12712-2 0  2889
2 47805  53.0547  45.5674 0001373  72.0558 130.6751 15.06404421    13
